OBJECT_NAME,OBJECT_ID,EPOCH,MEAN_MOTION,ECCENTRICITY,INCLINATION,RA_OF_ASC_NODE,ARG_OF_PERICENTER,MEAN_ANOMALY,EPHEMERIS_TYPE,CLASSIFICATION_TYPE,NORAD_CAT_ID,ELEMENT_SET_NO,REV_AT_EPOCH,BSTAR,MEAN_MOTION_DOT,MEAN_MOTION_DDOT
KUZGTU 1 (RS47S),2023-091AV,2026-07-23T20:22:21.709632,15.30617705,.000923,97.5046,269.7177,333.5546,26.5222,0,U,57217,999,16998,.39709E-3,.11695E-3,0
SONATE-2,2024-043Q,2026-07-23T09:04:47.329248,15.61378243,.0006369,97.5560,357.0780,79.1760,281.0214,0,U,59112,999,13353,.55216E-3,.4713E-3,0
MESAT1,2024-125G,2026-07-23T13:06:05.660640,15.67361390,.0010319,97.2244,62.9588,87.1591,273.0851,0,U,60209,999,11525,.66095E-3,.71775E-3,0
OOV-CUBE (TUBSAT-30),2024-128F,2026-07-23T04:25:49.884960,15.02898344,.00400777,61.9942,100.0399,141.8645,218.5295,0,U,60240,999,11152,.14199344E-3,.1732E-4,0
COLIBRI-S (RS67S),2024-199M,2026-07-23T19:58:18.445152,15.49152717,.0009718,97.2941,79.0482,134.9142,225.2900,0,U,61746,999,14308,.39311E-3,.21358E-3,0
HORS 3 (RS81S),2024-199U,2026-07-23T19:19:05.965824,15.57434765,.0007964,97.2925,81.4317,131.3174,228.8768,0,U,61753,999,14325,.54648E-3,.40165E-3,0
HORS 4 (RS82S),2024-199V,2026-07-23T20:03:38.920032,15.63166187,.0007615,97.2866,82.9276,125.9464,234.2502,0,U,61754,999,14336,.63096E-3,.57834E-3,0
SIT-2086,2024-199AF,2026-07-23T19:51:49.676256,15.55552052,.0008728,97.2881,81.8042,119.8970,240.3153,0,U,61764,999,14012,.61583E-3,.42252E-3,0
HYPERVIEW 1G (RS66S),2024-199AP,2026-07-23T19:35:59.743680,15.89198723,.0008403,97.2765,86.7068,137.0144,223.1786,0,U,61772,999,14046,.13229E-2,.378168E-2,.54555E-4
ALTAIR (RS65S),2024-199AW,2026-07-23T19:44:27.510432,15.37631276,.0013026,97.2987,73.9390,165.5789,194.5830,0,U,61779,999,14274,.20886E-3,.7654E-4,0
ASRTU-1 (AO-123),2024-199AY,2026-07-23T20:15:46.548000,15.36149986,.0013977,97.2958,73.1879,169.2350,190.9196,0,U,61781,999,13955,.21933E-3,.7668E-4,0
SAMSAT-IONOSPHERE (RS75S),2024-199BB,2026-07-23T19:58:31.670400,15.60840071,.001,97.2889,81.6578,134.4105,225.7973,0,U,61784,999,14327,.64105E-3,.53737E-3,0
RTU MIREA 1 (RS51S),2024-199BC,2026-07-23T19:54:08.114976,15.65220654,.0009946,97.2873,82.6991,130.4445,229.7683,0,U,61785,999,14019,.72329E-3,.72091E-3,0
TEVEL2-4,2025-052D,2026-07-23T03:51:55.557216,15.35785273,.00027495,97.3852,100.6345,36.8578,323.2855,0,U,63213,999,7563,.57522706E-3,.19975E-3,0
TEVEL2-5,2025-052E,2026-07-23T10:42:54.307296,15.35605621,.000273,97.3851,100.8580,37.4452,322.6982,0,U,63214,999,7567,.56402E-3,.19471E-3,0
TEVEL2-6,2025-052F,2026-07-23T15:43:22.381824,15.35578989,.0002772,97.3858,101.0520,40.1546,319.9902,0,U,63215,999,7570,.57044E-3,.19677E-3,0
TEVEL2-1,2025-052H,2026-07-23T12:02:34.935936,15.34995797,.0003444,97.3829,100.4780,42.4513,317.6997,0,U,63217,999,7566,.5743E-3,.19446E-3,0
TEVEL2-3,2025-052J,2026-07-23T16:34:25.207392,15.35066967,.0003243,97.3844,100.6932,45.3857,314.7650,0,U,63218,999,7569,.5453E-3,.185E-3,0
TEVEL2-2,2025-052K,2026-07-23T05:47:11.516928,15.34995797,.0003547,97.3828,100.2199,42.9363,317.2156,0,U,63219,999,7562,.56041E-3,.18973E-3,0
OTP-2,2025-052AB,2026-07-23T03:17:59.246592,15.24420687,.0007687,97.3822,96.0335,49.2368,310.9536,0,U,63235,999,7534,.3292E-3,.8011E-4,0
TEVEL2-9,2025-052AD,2026-07-23T12:39:16.885728,15.32937984,.0006753,97.3892,99.8003,33.2211,326.9454,0,U,63237,999,7559,.58184E-3,.18469E-3,0
TEVEL2-7,2025-052AE,2026-07-23T12:14:41.006976,15.32614693,.0006911,97.3894,99.6834,33.4573,326.7104,0,U,63238,999,7558,.55326E-3,.17379E-3,0
TEVEL2-8,2025-052AF,2026-07-23T10:53:02.954688,15.32597225,.0006974,97.3896,99.6027,34.4342,325.7351,0,U,63239,999,7557,.53559E-3,.16811E-3,0
INNOSAT 16 (RS92S7),2025-155C,2026-07-23T20:42:13.995936,15.25812058,.0012168,97.4586,171.8885,62.6007,297.6467,0,U,64878,999,8626,.2433E-3,.6159E-4,0
GEOSCAN 6 (RS92S6),2025-155D,2026-07-23T20:38:50.631072,15.30789445,.000946,97.4576,173.5765,57.6780,302.5376,0,U,64879,999,8637,.3698E-3,.10945E-3,0
GEOSCAN 1 (RS92S1),2025-155E,2026-07-23T20:20:39.031008,15.31447715,.0009425,97.4572,173.7453,58.1629,302.0529,0,U,64880,999,8638,.38577E-3,.11658E-3,0
239ALFEROV (RS61S),2025-155F,2026-07-23T21:25:29.976384,15.33866264,.0009084,97.4571,174.4815,58.2409,301.9717,0,U,64881,999,8643,.44649E-3,.14575E-3,0
GEOSCAN 2 (RS92S2),2025-155Q,2026-07-23T20:02:32.100000,15.31704075,.00084,97.4571,173.8993,48.2921,311.9037,0,U,64890,999,8639,.36543E-3,.11124E-3,0
GEOSCAN 5 (RS92S5),2025-155R,2026-07-23T20:59:00.311424,15.34167418,.0008181,97.4563,174.6141,63.7650,296.4432,0,U,64891,999,8644,.46074E-3,.15184E-3,0
GEOSCAN 4 (RS92S4),2025-155S,2026-07-23T20:30:38.447424,15.34340595,.0008063,97.4568,174.6537,64.3962,295.8113,0,U,64892,999,8644,.47415E-3,.15715E-3,0
