KUZGTU 1 (RS47S)        
1 57217U 23091AV  26204.84886238  .00011695  00000+0  39709-3 0  9990
2 57217  97.5046 269.7177 0009230 333.5546  26.5222 15.30617705169984
SONATE-2                
1 59112U 24043Q   26204.37832557  .00047130  00000+0  55216-3 0  9991
2 59112  97.5560 357.0780 0006369  79.1760 281.0214 15.61378243133539
MESAT1                  
1 60209U 24125G   26204.54589885  .00071775  00000+0  66095-3 0  9992
2 60209  97.2244  62.9588 0010319  87.1591 273.0851 15.67361390115251
OOV-CUBE (TUBSAT-30)    
1 60240U 24128F   26204.18460515  .00001732  00000+0  14199-3 0  9992
2 60240  61.9942 100.0399 0040077 141.8645 218.5295 15.02898344111520
COLIBRI-S (RS67S)       
1 61746U 24199M   26204.83215793  .00021358  00000+0  39311-3 0  9999
2 61746  97.2941  79.0482 0009718 134.9142 225.2900 15.49152717143085
HORS 3 (RS81S)          
1 61753U 24199U   26204.80493016  .00040165  00000+0  54648-3 0  9997
2 61753  97.2925  81.4317 0007964 131.3174 228.8768 15.57434765143251
HORS 4 (RS82S)          
1 61754U 24199V   26204.83586713  .00057834  00000+0  63096-3 0  9996
2 61754  97.2866  82.9276 0007615 125.9464 234.2502 15.63166187143366
SIT-2086                
1 61764U 24199AF  26204.82765829  .00042252  00000+0  61583-3 0  9990
2 61764  97.2881  81.8042 0008728 119.8970 240.3153 15.55552052140125
HYPERVIEW 1G (RS66S)    
1 61772U 24199AP  26204.81666370  .00378168  54555-4  13229-2 0  9999
2 61772  97.2765  86.7068 0008403 137.0144 223.1786 15.89198723140468
ALTAIR (RS65S)          
1 61779U 24199AW  26204.82254063  .00007654  00000+0  20886-3 0  9997
2 61779  97.2987  73.9390 0013026 165.5789 194.5830 15.37631276142747
ASRTU-1 (AO-123)        
1 61781U 24199AY  26204.84428875  .00007668  00000+0  21933-3 0  9995
2 61781  97.2958  73.1879 0013977 169.2350 190.9196 15.36149986139553
SAMSAT-IONOSPHERE (RS7*)
1 61784U 24199BB  26204.83231100  .00053737  00000+0  64105-3 0  9996
2 61784  97.2889  81.6578 0010000 134.4105 225.7973 15.60840071143279
RTU MIREA 1 (RS51S)     
1 61785U 24199BC  26204.82926059  .00072091  00000+0  72329-3 0  9991
2 61785  97.2873  82.6991 0009946 130.4445 229.7683 15.65220654140197
TEVEL2-4                
1 63213U 25052D   26204.16105969  .00019975  00000+0  57523-3 0  9995
2 63213  97.3852 100.6345 0002749  36.8578 323.2855 15.35785273 75634
TEVEL2-5                
1 63214U 25052E   26204.44646189  .00019471  00000+0  56402-3 0  9997
2 63214  97.3851 100.8580 0002730  37.4452 322.6982 15.35605621 75671
TEVEL2-6                
1 63215U 25052F   26204.65512016  .00019677  00000+0  57044-3 0  9993
2 63215  97.3858 101.0520 0002772  40.1546 319.9902 15.35578989 75708
TEVEL2-1                
1 63217U 25052H   26204.50179324  .00019446  00000+0  57430-3 0  9993
2 63217  97.3829 100.4780 0003444  42.4513 317.6997 15.34995797 75668
TEVEL2-3                
1 63218U 25052J   26204.69056953  .00018500  00000+0  54530-3 0  9994
2 63218  97.3844 100.6932 0003243  45.3857 314.7650 15.35066967 75693
TEVEL2-2                
1 63219U 25052K   26204.24110552  .00018973  00000+0  56041-3 0  9995
2 63219  97.3828 100.2199 0003547  42.9363 317.2156 15.34995797 75622
OTP-2                   
1 63235U 25052AB  26204.13749128  .00008011  00000+0  32920-3 0  9990
2 63235  97.3822  96.0335 0007687  49.2368 310.9536 15.24420687 75343
TEVEL2-9                
1 63237U 25052AD  26204.52727877  .00018469  00000+0  58184-3 0  9990
2 63237  97.3892  99.8003 0006753  33.2211 326.9454 15.32937984 75593
TEVEL2-7                
1 63238U 25052AE  26204.51019684  .00017379  00000+0  55326-3 0  9994
2 63238  97.3894  99.6834 0006911  33.4573 326.7104 15.32614693 75583
TEVEL2-8                
1 63239U 25052AF  26204.45350642  .00016811  00000+0  53559-3 0  9996
2 63239  97.3896  99.6027 0006974  34.4342 325.7351 15.32597225 75577
INNOSAT 16 (RS92S7)     
1 64878U 25155C   26204.86266199  .00006159  00000+0  24330-3 0  9997
2 64878  97.4586 171.8885 0012168  62.6007 297.6467 15.25812058 86261
GEOSCAN 6 (RS92S6)      
1 64879U 25155D   26204.86030823  .00010945  00000+0  36980-3 0  9993
2 64879  97.4576 173.5765 0009460  57.6780 302.5376 15.30789445 86376
GEOSCAN 1 (RS92S1)      
1 64880U 25155E   26204.84767397  .00011658  00000+0  38577-3 0  9992
2 64880  97.4572 173.7453 0009425  58.1629 302.0529 15.31447715 86387
239ALFEROV (RS61S)      
1 64881U 25155F   26204.89270806  .00014575  00000+0  44649-3 0  9990
2 64881  97.4571 174.4815 0009084  58.2409 301.9717 15.33866264 86434
GEOSCAN 2 (RS92S2)      
1 64890U 25155Q   26204.83509375  .00011124  00000+0  36543-3 0  9991
2 64890  97.4571 173.8993 0008400  48.2921 311.9037 15.31704075 86393
GEOSCAN 5 (RS92S5)      
1 64891U 25155R   26204.87430916  .00015184  00000+0  46074-3 0  9990
2 64891  97.4563 174.6141 0008181  63.7650 296.4432 15.34167418 86445
GEOSCAN 4 (RS92S4)      
1 64892U 25155S   26204.85461166  .00015715  00000+0  47415-3 0  9990
2 64892  97.4568 174.6537 0008063  64.3962 295.8113 15.34340595 86440
